#dP2018  9 29  0  0  0.00000000      96 __u+U ITR00 FIT  IAC
## 2020 518400.00000000   900.00000000 58390 0.0000000000000
+   92   C01C02C03C04C05C06C07C08C09C10C11C12C13C14E01E02E03
+        E04E05E07E08E09E11E12E14E18E19E21E24E25E26E27E30E31
+        G01G02G03G05G06G07G08G09G10G11G12G13G14G15G16G17G18
+        G19G20G21G22G23G24G25G26G27G28G29G30G31G32J01J02J03
+        J07R01R02R03R04R05R07R08R09R10R11R13R14R15R16R17R18
+        R19R20R21R22R23R24R26  0  0  0  0  0  0  0  0  0  0
++        12 12  0 12 12  9  9  9  9  9  8  8  8  8  6  7  6
++         6  6  6  6  6  7  7  6  6  6  7  7  7  6  6  7  7
++         3  3  3  3  3  3  3  3  3  3  3  4  3  3  3  3  3
++         3  3  3  3  3  3  3  4  3  3  3  3  3  3 10 10 11
++        16  5  5  5  5  6  5  5  5  6  6  6  6  6  5  5  5
++         5  6  6  6  6  6  9  0  0  0  0  0  0  0  0  0  0
%c M  cc GPS ccc cccc cccc cccc cccc ccccc ccccc ccccc ccccc
%c cc cc ccc ccc cccc cccc cccc cccc ccccc ccccc ccccc ccccc
%f  0.0000000  0.000000000  0.00000000000  0.000000000000000
%f  0.0000000  0.000000000  0.00000000000  0.000000000000000
%i    0    0    0    0      0      0      0      0         0
%i    0    0    0    0      0      0      0      0         0
/* INFORMATION & ANALYSIS CENTER (IAC) OF MCC   (RAPID DATA)
/* S/V CLOCKS ARE ALIGNED TO GPS & GLONASS TIME RESPECTIVELY
/* USING THE BROADCAST EPHEMERIS                            
/* PCV:IGS14_2000 OL/AL:FES2004  NONE     YN ORB:CoN CLK:CoN
*  2018 09 29 18 15  0.00000000
PC01 -32242.544005  27172.932808    850.939973 999999.999999
PC02   4355.220062  41935.064411   -926.815303     10.034658
PC03      0.000000      0.000000      0.000000 999999.999999
PC04 -39642.170700  14413.838404    366.620613   -285.374644
PC05  21894.977204  36002.684935  -1172.295270   -217.490015
PC06 -10864.349086  36291.628892 -17852.944491    337.235231
PC07 -11772.789970  22930.602649  33468.756426     -8.772498
PC08 -26350.088882  29272.831921 -15363.400697    544.664698
PC09  -1461.087388  41856.650500  -2867.742297    156.208269
PC10   2532.866153  27703.936018  31921.091681   -112.990701
PC11  -9792.371962  25854.805584  -4054.228276   -702.458105
PC12 -18068.602343  16144.525145  13986.587381    123.075244
PC13 -11928.273289  30325.417005 -26901.015827   -301.557628
PC14  -1402.687393  20791.430354 -18482.644446    497.323958
PE01  24555.811557  13774.746067   9163.222702   -445.413361
PE02 -24579.052338 -13743.630081  -9109.064713     29.311229
PE03 -15619.785100 -20057.385211 -15149.315026    -82.630917
PE04  17337.614927   -615.069274  23987.695392   -127.470838
PE05  -4738.560765 -29099.994551   2617.720253    185.472458
PE07  -8867.776700  21089.822555 -18780.471216    -47.368227
PE08 -17179.277584    793.610609 -24087.558211   6492.922563
PE09   8596.649896 -21104.919962  18888.244601   6662.390621
PE11  19435.475278 -22001.843698   3817.555948   5616.943539
PE12  23961.677101  -9058.684640 -14839.947019   5162.327022
PE14   2762.498981  26549.789323 -10684.097645   6512.148201
PE18   8893.508046 -27067.048532  -2369.958616   5869.852774
PE19  14895.588818  21592.881916  13713.911430    -11.788011
PE21   6303.309093  17622.195797  22941.214554   -497.049374
PE24  14763.529264 -11306.974997 -23029.736048   6467.187883
PE25  -6257.286236 -17607.439743 -22940.498598   2027.849918
PE26  -3771.875210  21809.636420 -19662.724679   5421.473854
PE27 -15376.470839  10966.623177  22799.837263    621.173889
PE30 -27845.292790  -1806.325190   9874.332531   5473.263360
PE31  28036.040218   2135.453873  -9263.930178   1022.554248
PG01   -239.608437  15717.523366 -21532.008364    -94.147128
PG02  19305.680200 -15785.933855   9375.491826    -15.880669
PG03   9646.561299  20567.131307 -13852.112536    142.722971
PG05   9689.521004 -12005.801219  21503.505750     -1.458411
PG06  25404.909725  -5613.089594  -5368.564106    356.821086
PG07  15993.813394   8997.468740  19598.068414    115.518502
PG08  -5949.995581  25649.517650   2794.748005   -116.832616
PG09   8297.197536  19636.846887  15800.798510    503.641386
PG10 -22620.468153  -8626.732066 -11082.552363    178.585422
PG11  -3076.278381  21205.135275 -16374.003448   -714.123755
PG12  -4254.042292 -19873.524970 -17386.525252    303.398339
PG13  12621.964007 -21656.187140   8644.362337    -88.159257
PG14 -15893.256336   8784.710871 -19017.443029    -97.037981
PG15   1056.947766 -26293.395854  -1436.017649   -344.528612
PG16 -11906.315370   8693.159185  21957.485369      6.666427
PG17  14434.758497   1961.327474 -21810.670269    -50.071645
PG18  -9818.847699  17750.537044 -17540.986951     62.745538
PG19  15994.392165  -9149.361085 -19471.514168   -398.174626
PG20 -22801.898173 -13678.423584  -1378.795982    516.553481
PG21 -18887.427090  -6283.345326  18357.283648   -329.258479
PG22   2464.731431  18844.887500 -18332.992135   -533.093812
PG23   2866.410824  24681.976871   9071.765710   -209.811707
PG24   4579.096578 -17425.604971 -19540.841303    -56.065680
PG25 -16228.892354 -19968.988045  -7238.583789   -654.363839
PG26 -19189.581758   1376.741397  18367.501165     -5.475432
PG27 -11884.368120  19953.435718  12557.229617    339.907640
PG28  21251.395803  12723.497610  -8885.099790    747.141403
PG29  -5952.402864 -20499.241966  15778.951769    366.841481
PG30  23596.587621   1845.094733  12243.695772     17.229327
PG31 -25805.082359   6609.432941  -2860.878836     90.187156
PG32 -15375.183156   -225.388639 -21610.266482   -408.814972
PJ01 -17867.276255  23800.712934 -25291.980859   -328.928771
PJ02 -30892.742290  22656.159006  22396.722156      0.074772
PJ03 -28327.650810  26796.989104  20989.002438      0.131272
PJ07 -25339.894552  33707.271083    -29.450969    125.496116
PR01  -9897.663413   5042.510776 -22963.159985     32.712370
PR02   2026.836313  21164.884719 -14019.525361    332.028336
PR03  11495.200900  22554.463125   2986.037472    144.559922
PR04  14204.476969  10343.604606  18497.047761    278.034174
PR05   8666.703762  -7035.720130  22944.013809     11.836838
PR07 -11617.467677 -22480.630801  -3330.215040    -48.219156
PR08 -14234.842577 -11075.387449 -17991.762462     21.117798
PR09   3597.956625 -10722.431221 -22848.836978     30.894207
PR10 -14215.011004 -10325.582595 -18465.729841     32.582254
PR11 -25006.572184  -4148.167102  -2575.207234    -42.387617
PR13  -3948.073051  10432.420930  22928.784753    -15.189072
PR14  14272.086664  10453.885246  18404.413630     31.478662
PR15  23669.104460   6156.103073   7095.746407    -17.059955
PR16  21161.774031  -4417.038855 -13467.082100    102.780311
PR17   1117.627675  14636.112146 -20869.381724    168.192466
PR18  12690.768477   -198.655889 -22125.996637     25.402486
PR19  17665.180210 -14608.880295 -11182.680213    -60.084814
PR20  11973.430513 -21162.419228   7778.881176   -353.937028
PR21  -1453.545597 -14228.338952  21108.652044     -6.157928
PR22 -13695.040264   2162.739507  21381.163602    -64.092205
PR23 -17090.924490  17561.300412   7084.019658    181.293487
PR24 -10818.036889  21293.895180  -8977.209357   -171.965935
PR26  12290.478745 -21394.977727   6417.096406     50.621902
EOF
